#dP2021 11 30  0  0  0.00000000      97 __u+U IGS14 FIT  IAC
## 2186 172800.00000000   900.00000000 59548 0.0000000000000
+  123   C01C02C04C05C06C07C08C09C10C11C12C13C14C16C19C20C21
+        C22C23C24C25C26C27C28C29C30C32C33C34C35C36C37C38C39
+        C40C41C42C43C44C45C46C59C60E01E02E03E04E05E07E08E09
+        E11E12E13E14E15E18E19E21E24E25E26E27E30E31E33E36G01
+        G02G03G04G05G06G07G08G09G10G12G13G14G15G16G17G18G19
+        G20G21G22G23G24G25G26G27G28G29G30G31G32J01J02J03J07
+        R01R02R03R04R05R07R08R09R11R12R13R14R15R16R17R18R19
+        R20R21R22R24  0  0  0  0  0  0  0  0  0  0  0  0  0
++         0  0  0  0  0  0  0  0  0  0  0  0  0  0  0  0  0
++         0  0  0  0  0  0  0  0  0  0  0  0  0  0  0  0  0
++         0  0  0  0  0  0  0  0  0  0  0  0  0  0  0  0  0
++         0  0  0  0  0  0  0  0  0  0  0  0  0  0  0  0  0
++         0  0  0  0  0  0  0  0  0  0  0  0  0  0  0  0  0
++         0  0  0  0  0  0  0  0  0  0  0  0  0  0  0  0  0
++         0  0  0  0  0  0  0  0  0  0  0  0  0  0  0  0  0
++         0  0  0  0  0  0  0  0  0  0  0  0  0  0  0  0  0
%c M  cc GPS ccc cccc cccc cccc cccc ccccc ccccc ccccc ccccc
%c cc cc ccc ccc cccc cccc cccc cccc ccccc ccccc ccccc ccccc
%f  1.2500000  1.025000000  0.00000000000  0.000000000000000
%f  0.0000000  0.000000000  0.00000000000  0.000000000000000
%i    0    0    0    0      0      0      0      0         0
%i    0    0    0    0      0      0      0      0         0
/* INFORMATION & ANALYSIS CENTER (IAC)            FINAL DATA
/* S/V CLOCKS ARE ALIGNED TO GNSS TIME                      
/* G:C1WC2W R:C1PC2P E:C1XC5X C:C2IC6I J:C1CC2S             
/* PCV:IGS14_2178 OL/AL:FES2004  NONE     YN ORB:CoN CLK:CoN
*  2021 11 30 20 30  0.00000000
PC01 -34311.969033  24473.419782    288.066121   -392.902589
PC02   4283.124201  41954.112020    330.935321    848.777369
PC04 -39608.264481  14374.770351    437.432674    275.136185
PC05  21871.949800  36049.912284    130.953443    318.870753
PC06 -15876.213999  27145.872669 -28198.888846    565.887507
PC07  -8996.819044  40545.516077  -6931.987189    176.121009
PC08   1313.104534  25781.857780  33394.968440    -61.744553
PC09  -9414.370589  26301.846459 -31402.215751   -310.397313
PC10  -2446.131829  41844.216774    808.857800    135.770327
PC11  -9796.331604 -12627.356099 -22799.477913   -361.124014
PC12  10392.636285 -16902.251693 -19589.279037   -422.198330
PC13   6078.976864  28799.755941  30425.134094   -192.315181
PC14  -6015.388884 -22899.170367  14824.138779    513.927730
PC16 -21493.864000  26339.686798 -24962.831273      7.846708
PC19  11667.418702  14650.075303 -20667.753440    928.522101
PC20    569.561224  26655.386054  -8198.640359   -792.087066
PC21  11575.193990 -23372.098882  -9936.937065   -941.847860
PC22  16460.917387  -6303.279629 -21645.927797   -970.625003
PC23 -21994.616329  -3361.430003 -16832.473662   -963.418912
PC24  -7663.722506 -21771.357874  15652.466668   -955.747747
PC25 -22039.740040 -17016.321334  -1640.634422   -816.857146
PC26   8764.869565 -13763.477107  22626.190977    814.351628
PC27 -18967.751251  15678.272641  13156.740231    637.873607
PC28 -26994.376798   5836.110460  -3968.951343      3.501295
PC29  19418.936642   6802.821614  18848.734288    481.416494
PC30     35.704831  16563.885953  22459.495618    487.606860
PC32 -11447.314303  23397.471705  10017.138676   -958.658348
PC33 -11732.420893 -14698.677447  20616.651646   -965.583642
PC34  -1078.794237 -16339.533590 -22599.791824   -525.060724
PC35  26774.287983  -6393.430563   4480.893174     24.990616
PC36  21486.767303  17775.545035   1225.968311   -818.520720
PC37  -9964.354503  12823.842782 -22679.599048   -902.013648
PC38  -8960.814219  22307.848868  34676.802506    193.283907
PC39 -24764.417644  27005.302535 -21021.232198     34.181043
PC40 -14756.679721  37732.159592 -11415.063727    222.436905
PC41 -16490.706459   5882.595727  21773.831268   -915.475801
PC42    -24.040139 -26924.691694   7391.358871   -937.542638
PC43 -18948.998483  -7386.050539 -19120.202756   -957.365324
PC44  18516.068141 -16346.742885 -12964.919467    483.135421
PC45  21887.955049   3241.315169  17024.316628    614.803598
PC46   8968.082827  21926.124081 -14783.112691    -36.276142
PC59 -32285.034383  27119.058891   -460.310405      0.347118
PC60   7275.380996  41504.056314   1504.325332     -0.400218
PE01  18428.522490  13810.397833  18609.190548   -528.279186
PE02 -18433.563599 -13634.103646 -18705.024175    263.809916
PE03 -19062.354942  -2012.802484  22542.417702   -501.533770
PE04  22675.714768 -16148.686566 -10060.566314   -910.937614
PE05  -4190.130677 -19327.686562  22017.310806   -229.952307
PE07 -12929.030627  25168.656276  -8684.601914   -612.685598
PE08 -22487.885719  16592.705856   9733.668219   5896.405635
PE09  12724.561019 -25206.716340   8896.383292   5445.637047
PE11   7381.897115 -14931.380409 -24471.156724   4983.149568
PE12  25647.679350  -4936.651789 -13915.592469   4883.729245
PE13  -8000.251801  14702.311431  24421.933520    424.229151
PE14 -24156.918988   4555.951421 -13690.070352  -1658.637727
PE15 -25678.132193   4924.576061  13884.112964    777.928055
PE18  23151.534756 -18386.383605   -811.850971  -1823.799727
PE19  17609.074812   4397.311436 -23385.129867    440.720877
PE21  11958.199511  26933.643883   2852.446958   -702.622240
PE24   2759.508040 -24628.221354  16156.699986  -1254.903424
PE25 -11807.103575 -27010.260991  -2603.718493   -555.339963
PE26  15277.037735  15768.174134  19867.085551   -516.625805
PE27  -1771.806489  25263.745496 -15329.691383   -176.617541
PE30 -14975.536481   7440.242904 -24429.350729    -72.676069
PE31  14372.882991  -8726.597394  24371.057366   -488.756840
PE33  28161.974986   7740.000312   4825.427284   -461.956606
PE36 -14294.294473 -15788.549926 -20547.831940   -297.456061
PG01 -20487.630449 -14120.377752 -10035.322519    496.435032
PG02   -147.287638  15723.622088  22062.280583   -644.055449
PG03 -12664.748812 -19811.870637  12345.293070    -27.691591
PG04 -12627.407140  -9097.362525  21530.463768   -200.475153
PG05   5326.434507  25885.368372   1449.643669    -62.851358
PG06 -16235.611308   8133.423581  19471.493104    130.917823
PG07 -25818.542067  -5400.129489  -4503.655570    285.108227
PG08  -2397.841381 -16888.929086 -20283.434242    -46.272307
PG09 -20236.592133   2220.349827  16999.472805   -361.171821
PG10  12824.095069  -9288.118326 -21147.147512   -258.058359
PG12  10299.161262  21944.471184  10755.612214   -134.039077
PG13  -6486.521056  18922.661335 -17548.153383    222.510024
PG14 -13598.338238   8921.917863 -20989.308584    -47.523396
PG15   5347.496615  16765.933569 -20212.349151   -102.576397
PG16   -184.533347 -25964.219582   3988.234329   -432.958347
PG17 -22474.526481  12830.720557  -5596.473100    541.112892
PG18  25478.752933   4599.053135  -6164.687686    287.218670
PG19 -20589.730658  16452.901787   2154.278186     86.171386
PG20   -626.495855  23758.920826  12105.193169    517.859181
PG21 -14382.801912 -15177.192216 -16024.725727    152.506163
PG22 -11002.443080 -23928.381865   4396.685680   -452.291935
PG23  15783.286254   3509.675253 -21107.027475     26.962501
PG24  17725.082142  14879.013116 -13674.126891    271.725928
PG25  15358.640923  11958.607264  17926.323185    248.743240
PG26   7149.092002 -19614.876383  16177.508911    160.536997
PG27   7951.161505 -20505.323913 -14794.010265   -225.556919
PG28 -10195.989244  16762.827294 -17468.125278    452.376436
PG29  17804.409088   2783.759200  19491.206464   -447.809027
PG30 -22526.376520   2827.875259 -13906.215904   -495.689004
PG31  14738.805920  -9637.305282  19904.138524   -152.780648
PG32  20760.925924 -16168.292125  -2666.156722    -28.830501
PJ01 -32816.350396  24264.184007  15436.415918    115.429035
PJ02 -19348.206543  24153.534311 -24033.911577     -0.230156
PJ03 -30154.044564  27009.526376  17045.282155     -7.802995
PJ07 -25375.312844  33675.386440    -50.728352     -0.032276
PR01  13489.144631  -8963.647636 -19715.868642     88.833638
PR02  10790.055850 -22891.219530  -2869.072858    501.814508
PR03   1346.761300 -21281.702100  13987.139265     47.350821
PR04  -8413.450253  -7729.971433  22824.274291    116.709236
PR05 -13709.317023  10052.123725  19032.470538     83.395813
PR07  -1038.933596  21014.173964 -14430.326131    -39.580582
PR08   8528.868344   7724.322587 -22719.951296    -62.287295
PR09  -2133.295400  13933.483399 -21226.148350     26.334153
PR11  18005.454767  16357.207487   7671.196820     49.586762
PR12  14247.333495   1715.012389  21120.656961    282.744478
PR13   2712.265838 -13102.351551  21701.170062    -64.220534
PR14 -11202.011312 -21038.854568   9113.161552     71.570362
PR15 -17884.984982 -16188.803481  -8264.802551     99.886417
PR16 -13641.357412     53.091859 -21545.631935    -25.940760
PR17  -3833.321849 -10060.522409 -23107.833715    479.527644
PR18 -19798.470126  -4383.934141 -15484.015693     98.952676
PR19 -25381.011791   2387.315404   -706.375467   -168.960901
PR20 -15708.406196   9544.580560  17717.449902    -60.340984
PR21   5359.743839   9710.041724  22979.316695   -258.661101
PR22  20318.590757   4082.367067  14799.643024   -148.513445
PR24  14841.969740 -10343.593318 -17970.119147     69.200763
EOF
